{"fetched_at":"2026-03-29T16:36:15Z","count":15609,"tles":[{"name":"STARLINK-35338","line1":"1 66250U 25245S   26087.80489985  .00023356  00000+0  79777-3 0  9999","line2":"2 66250  53.1557 195.0692 0000846 126.1962 233.9117 15.30217933 24088","category":"Starlink"}]}